[{"OBJECT_NAME":"STARLINK-34387","OBJECT_ID":"2025-123AA","EPOCH":"2026-03-09T17:00:24.926976","MEAN_MOTION":14.98336519,"ECCENTRICITY":0.00035853,"INCLINATION":70.0021,"RA_OF_ASC_NODE":194.3144,"ARG_OF_PERICENTER":272.8592,"MEAN_ANOMALY":87.2157,"EPHEMERIS_TYPE":0,"CLASSIFICATION_TYPE":"U","NORAD_CAT_ID":64315,"ELEMENT_SET_NO":999,"REV_AT_EPOCH":4162,"BSTAR":0.00069562307,"MEAN_MOTION_DOT":8.218e-5,"MEAN_MOTION_DDOT":0},{"OBJECT_NAME":"OKEAN-4","OBJECT_ID":"1994-066A","EPOCH":"2026-03-09T20:34:09.232320","MEAN_MOTION":14.96885016,"ECCENTRICITY":0.00147251,"INCLINATION":82.5373,"RA_OF_ASC_NODE":349.8556,"ARG_OF_PERICENTER":246.8531,"MEAN_ANOMALY":113.1141,"EPHEMERIS_TYPE":0,"CLASSIFICATION_TYPE":"U","NORAD_CAT_ID":23317,"ELEMENT_SET_NO":999,"REV_AT_EPOCH":70047,"BSTAR":0.00028288801,"MEAN_MOTION_DOT":3.276e-5,"MEAN_MOTION_DDOT":0}]
